[{"OBJECT_NAME":"STARLINK-5375","OBJECT_ID":"2023-046BA","EPOCH":"2026-03-09T22:00:01.999584","MEAN_MOTION":15.08605244,"ECCENTRICITY":9.678e-5,"INCLINATION":43.0007,"RA_OF_ASC_NODE":144.5171,"ARG_OF_PERICENTER":295.9531,"MEAN_ANOMALY":244.7343,"EPHEMERIS_TYPE":0,"CLASSIFICATION_TYPE":"U","NORAD_CAT_ID":56140,"ELEMENT_SET_NO":999,"REV_AT_EPOCH":567,"BSTAR":0.00028450337,"MEAN_MOTION_DOT":4.313e-5,"MEAN_MOTION_DDOT":0},{"OBJECT_NAME":"FENGYUN 1C DEB","OBJECT_ID":"1999-025DHR","EPOCH":"2026-03-09T03:17:03.366528","MEAN_MOTION":14.93788576,"ECCENTRICITY":0.01441183,"INCLINATION":98.9629,"RA_OF_ASC_NODE":141.136,"ARG_OF_PERICENTER":297.5682,"MEAN_ANOMALY":61.0956,"EPHEMERIS_TYPE":0,"CLASSIFICATION_TYPE":"U","NORAD_CAT_ID":33728,"ELEMENT_SET_NO":999,"REV_AT_EPOCH":99589,"BSTAR":0.0005846723,"MEAN_MOTION_DOT":7.528e-5,"MEAN_MOTION_DDOT":0}]
